[{"OBJECT_NAME":"ONEWEB-0094","OBJECT_ID":"2020-020AC","EPOCH":"2026-05-30T01:18:01.774080","MEAN_MOTION":13.17649556,"ECCENTRICITY":0.0001717,"INCLINATION":87.9157,"RA_OF_ASC_NODE":9.4542,"ARG_OF_PERICENTER":78.8151,"MEAN_ANOMALY":281.3173,"EPHEMERIS_TYPE":0,"CLASSIFICATION_TYPE":"U","NORAD_CAT_ID":45450,"ELEMENT_SET_NO":999,"REV_AT_EPOCH":30392,"BSTAR":0.00025016,"MEAN_MOTION_DOT":1.1e-06,"MEAN_MOTION_DDOT":0.0},{"OBJECT_NAME":"ONEWEB-0087","OBJECT_ID":"2020-020AD","EPOCH":"2026-05-30T02:26:12.091776","MEAN_MOTION":13.11415695,"ECCENTRICITY":0.0001912,"INCLINATION":87.8921,"RA_OF_ASC_NODE":24.6386,"ARG_OF_PERICENTER":72.56,"MEAN_ANOMALY":287.5737,"EPHEMERIS_TYPE":0,"CLASSIFICATION_TYPE":"U","NORAD_CAT_ID":45451,"ELEMENT_SET_NO":999,"REV_AT_EPOCH":30021,"BSTAR":0.0017248,"MEAN_MOTION_DOT":6.24e-06,"MEAN_MOTION_DDOT":0.0},{"OBJECT_NAME":"ONEWEB-0082","OBJECT_ID":"2020-020AE","EPOCH":"2026-05-30T02:21:24.556896","MEAN_MOTION":13.11450881,"ECCENTRICITY":0.000201,"INCLINATION":87.8913,"RA_OF_ASC_NODE":24.6573,"ARG_OF_PERICENTER":73.7485,"MEAN_ANOMALY":286.3864,"EPHEMERIS_TYPE":0,"CLASSIFICATION_TYPE":"U","NORAD_CAT_ID":45452,"ELEMENT_SET_NO":999,"REV_AT_EPOCH":30030,"BSTAR":0.0017853,"MEAN_MOTION_DOT":6.46e-06,"MEAN_MOTION_DDOT":0.0},{"OBJECT_NAME":"ONEWEB-0050","OBJECT_ID":"2020-020AF","EPOCH":"2026-05-29T17:52:44.848128","MEAN_MOTION":14.90287153,"ECCENTRICITY":0.0005567,"INCLINATION":88.9304,"RA_OF_ASC_NODE":235.7131,"ARG_OF_PERICENTER":64.8102,"MEAN_ANOMALY":295.3704,"EPHEMERIS_TYPE":0,"CLASSIFICATION_TYPE":"U","NORAD_CAT_ID":45453,"ELEMENT_SET_NO":999,"REV_AT_EPOCH":33763,"BSTAR":0.00028516,"MEAN_MOTION_DOT":2.789e-05,"MEAN_MOTION_DDOT":0.0},{"OBJECT_NAME":"ONEWEB-0034","OBJECT_ID":"2020-020AG","EPOCH":"2026-05-30T01:20:25.015776","MEAN_MOTION":13.10932768,"ECCENTRICITY":0.0001773,"INCLINATION":87.891,"RA_OF_ASC_NODE":24.674,"ARG_OF_PERICENTER":81.498,"MEAN_ANOMALY":278.6348,"EPHEMERIS_TYPE":0,"CLASSIFICATION_TYPE":"U","NORAD_CAT_ID":45454,"ELEMENT_SET_NO":999,"REV_AT_EPOCH":30021,"BSTAR":-0.0011681,"MEAN_MOTION_DOT":-3.98e-06,"MEAN_MOTION_DDOT":0.0},{"OBJECT_NAME":"ONEWEB-0060","OBJECT_ID":"2020-020AH","EPOCH":"2026-05-30T02:10:31.575072","MEAN_MOTION":13.11418202,"ECCENTRICITY":0.0002132,"INCLINATION":87.8908,"RA_OF_ASC_NODE":24.6675,"ARG_OF_PERICENTER":53.5938,"MEAN_ANOMALY":306.5386,"EPHEMERIS_TYPE":0,"CLASSIFICATION_TYPE":"U","NORAD_CAT_ID":45455,"ELEMENT_SET_NO":999,"REV_AT_EPOCH":30017,"BSTAR":0.0011618000000000002,"MEAN_MOTION_DOT":4.24e-06,"MEAN_MOTION_DDOT":0.0},{"OBJECT_NAME":"ONEWEB-0086","OBJECT_ID":"2020-020AJ","EPOCH":"2026-05-30T01:39:59.501952","MEAN_MOTION":13.11417838,"ECCENTRICITY":0.000143,"INCLINATION":87.8915,"RA_OF_ASC_NODE":24.6661,"ARG_OF_PERICENTER":59.1054,"MEAN_ANOMALY":301.0214,"EPHEMERIS_TYPE":0,"CLASSIFICATION_TYPE":"U","NORAD_CAT_ID":45456,"ELEMENT_SET_NO":999,"REV_AT_EPOCH":30023,"BSTAR":-0.0012661,"MEAN_MOTION_DOT":-4.36e-06,"MEAN_MOTION_DDOT":0.0},{"OBJECT_NAME":"ONEWEB-0088","OBJECT_ID":"2020-020AK","EPOCH":"2026-05-30T01:08:16.441728","MEAN_MOTION":13.11411962,"ECCENTRICITY":0.0002379,"INCLINATION":87.8926,"RA_OF_ASC_NODE":24.6417,"ARG_OF_PERICENTER":94.7445,"MEAN_ANOMALY":265.3955,"EPHEMERIS_TYPE":0,"CLASSIFICATION_TYPE":"U","NORAD_CAT_ID":45457,"ELEMENT_SET_NO":999,"REV_AT_EPOCH":30016,"BSTAR":-0.0014449999999999999,"MEAN_MOTION_DOT":-4.99e-06,"MEAN_MOTION_DDOT":0.0},{"OBJECT_NAME":"ONEWEB-0102","OBJECT_ID":"2020-100A","EPOCH":"2026-05-29T14:36:00.156096","MEAN_MOTION":13.12443973,"ECCENTRICITY":0.0001467,"INCLINATION":87.8945,"RA_OF_ASC_NODE":354.3715,"ARG_OF_PERICENTER":84.7835,"MEAN_ANOMALY":275.3461,"EPHEMERIS_TYPE":0,"CLASSIFICATION_TYPE":"U","NORAD_CAT_ID":47258,"ELEMENT_SET_NO":999,"REV_AT_EPOCH":26229,"BSTAR":-0.00064287,"MEAN_MOTION_DOT":-2.19e-06,"MEAN_MOTION_DDOT":0.0},{"OBJECT_NAME":"ONEWEB-0109","OBJECT_ID":"2020-100B","EPOCH":"2026-05-29T23:57:06.399072","MEAN_MOTION":13.1244423,"ECCENTRICITY":0.0001659,"INCLINATION":87.8955,"RA_OF_ASC_NODE":354.276,"ARG_OF_PERICENTER":89.7132,"MEAN_ANOMALY":270.4187,"EPHEMERIS_TYPE":0,"CLASSIFICATION_TYPE":"U","NORAD_CAT_ID":47259,"ELEMENT_SET_NO":999,"REV_AT_EPOCH":26217,"BSTAR":0.00025374999999999996,"MEAN_MOTION_DOT":1.04e-06,"MEAN_MOTION_DDOT":0.0},{"OBJECT_NAME":"ONEWEB-0110","OBJECT_ID":"2020-100C","EPOCH":"2026-05-30T00:36:08.767008","MEAN_MOTION":13.12442668,"ECCENTRICITY":0.0001648,"INCLINATION":87.8955,"RA_OF_ASC_NODE":354.255,"ARG_OF_PERICENTER":79.1987,"MEAN_ANOMALY":280.9327,"EPHEMERIS_TYPE":0,"CLASSIFICATION_TYPE":"U","NORAD_CAT_ID":47260,"ELEMENT_SET_NO":999,"REV_AT_EPOCH":26234,"BSTAR":0.0012209,"MEAN_MOTION_DOT":4.52e-06,"MEAN_MOTION_DDOT":0.0},{"OBJECT_NAME":"ONEWEB-0111","OBJECT_ID":"2020-100D","EPOCH":"2026-05-29T14:21:20.727648","MEAN_MOTION":13.124438,"ECCENTRICITY":0.0001825,"INCLINATION":87.8955,"RA_OF_ASC_NODE":354.3584,"ARG_OF_PERICENTER":83.5903,"MEAN_ANOMALY":276.5434,"EPHEMERIS_TYPE":0,"CLASSIFICATION_TYPE":"U","NORAD_CAT_ID":47261,"ELEMENT_SET_NO":999,"REV_AT_EPOCH":26212,"BSTAR":-0.00099054,"MEAN_MOTION_DOT":-3.44e-06,"MEAN_MOTION_DDOT":0.0},{"OBJECT_NAME":"ONEWEB-0114","OBJECT_ID":"2020-100E","EPOCH":"2026-05-30T00:14:11.192064","MEAN_MOTION":13.12443881,"ECCENTRICITY":0.0001773,"INCLINATION":87.8957,"RA_OF_ASC_NODE":354.2736,"ARG_OF_PERICENTER":95.8528,"MEAN_ANOMALY":264.2802,"EPHEMERIS_TYPE":0,"CLASSIFICATION_TYPE":"U","NORAD_CAT_ID":47262,"ELEMENT_SET_NO":999,"REV_AT_EPOCH":26213,"BSTAR":0.0012075,"MEAN_MOTION_DOT":4.47e-06,"MEAN_MOTION_DDOT":0.0},{"OBJECT_NAME":"ONEWEB-0117","OBJECT_ID":"2020-100F","EPOCH":"2026-05-30T00:01:58.884672","MEAN_MOTION":13.12443635,"ECCENTRICITY":0.0001739,"INCLINATION":87.8954,"RA_OF_ASC_NODE":354.2669,"ARG_OF_PERICENTER":86.3252,"MEAN_ANOMALY":273.8075,"EPHEMERIS_TYPE":0,"CLASSIFICATION_TYPE":"U","NORAD_CAT_ID":47263,"ELEMENT_SET_NO":999,"REV_AT_EPOCH":26214,"BSTAR":0.00064284,"MEAN_MOTION_DOT":2.44e-06,"MEAN_MOTION_DDOT":0.0},{"OBJECT_NAME":"ONEWEB-0118","OBJECT_ID":"2020-100G","EPOCH":"2026-05-30T00:50:45.840192","MEAN_MOTION":13.12441075,"ECCENTRICITY":0.0001961,"INCLINATION":87.8953,"RA_OF_ASC_NODE":354.2628,"ARG_OF_PERICENTER":94.8523,"MEAN_ANOMALY":265.2829,"EPHEMERIS_TYPE":0,"CLASSIFICATION_TYPE":"U","NORAD_CAT_ID":47264,"ELEMENT_SET_NO":999,"REV_AT_EPOCH":26234,"BSTAR":0.00030599,"MEAN_MOTION_DOT":1.23e-06,"MEAN_MOTION_DDOT":0.0},{"OBJECT_NAME":"ONEWEB-0119","OBJECT_ID":"2020-100H","EPOCH":"2026-05-30T01:27:21.761856","MEAN_MOTION":13.12443032,"ECCENTRICITY":0.0001767,"INCLINATION":87.8944,"RA_OF_ASC_NODE":354.2759,"ARG_OF_PERICENTER":87.7603,"MEAN_ANOMALY":272.3728,"EPHEMERIS_TYPE":0,"CLASSIFICATION_TYPE":"U","NORAD_CAT_ID":47265,"ELEMENT_SET_NO":999,"REV_AT_EPOCH":26232,"BSTAR":-0.0008820599999999999,"MEAN_MOTION_DOT":-3.05e-06,"MEAN_MOTION_DDOT":0.0}]