ONEWEB-0094             
1 45450U 20020AC  26150.05418720  .00000110  00000+0  25016-3 0  9991
2 45450  87.9157   9.4542 0001717  78.8151 281.3173 13.17649556303926
ONEWEB-0087             
1 45451U 20020AD  26150.10152884  .00000624  00000+0  17248-2 0  9991
2 45451  87.8921  24.6386 0001912  72.5600 287.5737 13.11415695300219
ONEWEB-0082             
1 45452U 20020AE  26150.09820089  .00000646  00000+0  17853-2 0  9995
2 45452  87.8913  24.6573 0002010  73.7485 286.3864 13.11450881300307
ONEWEB-0050             
1 45453U 20020AF  26149.74496352  .00002789  00000+0  28516-3 0  9997
2 45453  88.9304 235.7131 0005567  64.8102 295.3704 14.90287153337633
ONEWEB-0034             
1 45454U 20020AG  26150.05584509 -.00000398  00000+0 -11681-2 0  9996
2 45454  87.8910  24.6740 0001773  81.4980 278.6348 13.10932768300212
ONEWEB-0060             
1 45455U 20020AH  26150.09064323  .00000424  00000+0  11618-2 0  9996
2 45455  87.8908  24.6675 0002132  53.5938 306.5386 13.11418202300171
ONEWEB-0086             
1 45456U 20020AJ  26150.06943868 -.00000436  00000+0 -12661-2 0  9998
2 45456  87.8915  24.6661 0001430  59.1054 301.0214 13.11417838300237
ONEWEB-0088             
1 45457U 20020AK  26150.04741252 -.00000499  00000+0 -14450-2 0  9997
2 45457  87.8926  24.6417 0002379  94.7445 265.3955 13.11411962300169
ONEWEB-0102             
1 47258U 20100A   26149.60833514 -.00000219  00000+0 -64287-3 0  9994
2 47258  87.8945 354.3715 0001467  84.7835 275.3461 13.12443973262296
ONEWEB-0109             
1 47259U 20100B   26149.99799073  .00000104  00000+0  25375-3 0  9994
2 47259  87.8955 354.2760 0001659  89.7132 270.4187 13.12444230262170
ONEWEB-0110             
1 47260U 20100C   26150.02510147  .00000452  00000+0  12209-2 0  9992
2 47260  87.8955 354.2550 0001648  79.1987 280.9327 13.12442668262342
ONEWEB-0111             
1 47261U 20100D   26149.59815657 -.00000344  00000+0 -99054-3 0  9993
2 47261  87.8955 354.3584 0001825  83.5903 276.5434 13.12443800262120
ONEWEB-0114             
1 47262U 20100E   26150.00985176  .00000447  00000+0  12075-2 0  9995
2 47262  87.8957 354.2736 0001773  95.8528 264.2802 13.12443881262135
ONEWEB-0117             
1 47263U 20100F   26150.00137598  .00000244  00000+0  64284-3 0  9998
2 47263  87.8954 354.2669 0001739  86.3252 273.8075 13.12443635262145
ONEWEB-0118             
1 47264U 20100G   26150.03525278  .00000123  00000+0  30599-3 0  9996
2 47264  87.8953 354.2628 0001961  94.8523 265.2829 13.12441075262342
ONEWEB-0119             
1 47265U 20100H   26150.06066854 -.00000305  00000+0 -88206-3 0  9992
2 47265  87.8944 354.2759 0001767  87.7603 272.3728 13.12443032262322
